SCD 1                   
1 22490U 93009B   26111.94004515  .00000385  00000+0  54381-4 0  9997
2 22490  24.9685 194.8619 0041673 262.7656 258.5460 14.46094441752962
TECHSAT 1B (GO-32)      
1 25397U 98043D   26111.94001620  .00000027  00000+0  31750-4 0  9991
2 25397  99.0061 103.2852 0001928  50.4736 309.6613 14.24416792443323
SCD 2                   
1 25504U 98060A   26112.16752787  .00000336  00000+0  42926-4 0  9992
2 25504  24.9957  57.6231 0016533 250.7498 132.7067 14.45503650452214
DLR-TUBSAT              
1 25757U 99029B   26112.21641858  .00000037  00000+0  20944-4 0  9994
2 25757  98.6693 105.8832 0014652 156.0523 204.1356 14.52411661425122
TERRA                   
1 25994U 99068A   26112.27262537  .00000274  00000+0  64830-4 0  9994
2 25994  97.9509 164.0227 0003377  64.1173   0.4527 14.61057133401446
MAROC-TUBSAT            
1 27004U 01056D   26111.94498131 -.00000037  00000+0  11056-4 0  9992
2 27004  99.8057 287.7483 0019069 287.6914 230.8601 13.70260028218486
AQUA                    
1 27424U 02022A   26112.28853549  .00000608  00000+0  13100-3 0  9992
2 27424  98.4240  80.4720 0001968 100.0685   6.1846 14.62067344275100
SHIYAN-1 (SY-1)         
1 28220U 04012A   26112.17953972  .00010021  00000+0  32393-3 0  9992
2 28220  97.8701 186.6727 0005505 203.6329 156.4659 15.32292084202517
AURA                    
1 28376U 04026A   26112.24868593  .00000632  00000+0  13805-3 0  9995
2 28376  98.3376  68.2572 0001681  87.6369 272.5024 14.61239068158049
IRS-P5 (CARTOSAT-1)     
1 28649U 05017A   26112.03980947  .00000886  00000+0  95168-4 0  9998
2 28649  97.5357 137.6455 0000790 125.4214 234.7078 14.90900442135455
SINAH 1                 
1 28893U 05043D   26112.28862617  .00000257  00000+0  58276-4 0  9999
2 28893  98.2771 246.3085 0015760  91.8294 268.4714 14.64117297 92348
RESURS-DK 1             
1 29228U 06021A   26112.04126324  .00001599  00000+0  96528-4 0  9993
2 29228  69.9296 124.8650 0002938 347.8314  12.2781 15.12968850 94081
ARIRANG-2 (KOMPSAT-2)   
1 29268U 06031A   26112.28376249 -.00000008  00000+0  68978-5 0  9991
2 29268  97.8311 299.4337 0013002 249.6837 229.4494 14.64622230 53293
LAPAN-TUBSAT            
1 29709U 07001A   26112.22805734  .00000845  00000+0  10348-3 0  9993
2 29709  98.1350 110.1949 0012581  14.9803 345.1781 14.85892780 42841
HAIYANG-1B              
1 31113U 07010A   26111.92877134  .00000063  00000+0  39832-4 0  9996
2 31113  98.3475  95.9649 0013820  13.5056 346.6495 14.31012430992582
COSMO-SKYMED 1          
1 31598U 07023A   26112.32088194  .00001856  00000+0  16726-3 0  9999
2 31598  97.8869 303.7123 0001103  98.4408 261.6939 14.96820132 21434
TERRASAR-X              
1 31698U 07026A   26111.47913972  .00000284  00000+0  16722-4 0  9990
2 31698  97.4453 119.9937 0001811  79.9030 280.2409 15.19149529 44615
WORLDVIEW-1 (WV-1)      
1 32060U 07041A   26112.23236964  .00005061  00000+0  21023-3 0  9992
2 32060  97.3877 232.7600 0001463 216.1040 144.0098 15.24262212 34350
YAOGAN-3                
1 32289U 07055A   26112.27908860  .00001292  00000+0  13786-3 0  9994
2 32289  97.8202 142.7053 0001222  92.5732 267.5625 14.90561231997539
COSMO-SKYMED 2          
1 32376U 07059A   26112.26233847  .00000282  00000+0  41972-4 0  9997
2 32376  97.8884 296.6705 0001405  92.1864 267.9510 14.82155664993713
RADARSAT-2              
1 32382U 07061A   26112.27102997  .00000319  00000+0  14081-3 0  9990
2 32382  98.5802 119.9992 0001269  85.3521 274.7807 14.29982502957967
CARTOSAT-2A             
1 32783U 08021A   26112.30660929  .00000763  00000+0  10955-3 0  9999
2 32783  97.7682 162.9102 0010438 297.1857  62.8291 14.79167875970548
HUANJING 1A (HJ-1A)     
1 33320U 08041A   26112.26641346  .00001745  00000+0  21601-3 0  9997
2 33320  97.6673 100.2811 0018177 326.9612  33.0466 14.83858657950110
HUANJING 1B (HJ-1B)     
1 33321U 08041B   26112.27832759  .00001565  00000+0  19571-3 0  9992
2 33321  97.6515 103.6304 0036823   9.6163 350.5749 14.83215180950124
GEOEYE 1                
1 33331U 08042A   26112.27084072  .00000334  00000+0  71690-4 0  9995
2 33331  98.1252 186.9074 0003223 222.9447 137.1504 14.64671474941961
THEOS                   
1 33396U 08049A   26112.30860937 -.00000085  00000+0 -19829-4 0  9990
2 33396  98.5611 171.3941 0001309  93.7574 266.3753 14.20124148910032
COSMO-SKYMED 3          
1 33412U 08054A   26112.29345471  .00002010  00000+0  13982-3 0  9995
2 33412  97.8339 329.9307 0017143  95.2745 265.0438 15.06583396948527
YAOGAN-4                
1 33446U 08061A   26112.23817615  .00000729  00000+0  96096-4 0  9991
2 33446  97.9285  46.1741 0012850 251.5473 108.4344 14.83092291937370
GOSAT (IBUKI)           
1 33492U 09002A   26112.29721777  .00000507  00000+0  97843-4 0  9992
2 33492  98.0820 224.0980 0001203 108.5040 251.6295 14.67547505923265
DEIMOS-1                
1 35681U 09041A   26112.29577508  .00000586  00000+0  93749-4 0  9996
2 35681  97.7340 271.9666 0002257  52.3609 307.7805 14.75177005898645
DUBAISAT-1              
1 35682U 09041B   26112.12574680  .00000789  00000+0  12480-3 0  9994
2 35682  97.9962 246.0277 0009203 247.8040 112.2193 14.75016209896833
OCEANSAT-2              
1 35931U 09051A   26112.29735272 -.00000208  00000+0 -11667-3 0  9990
2 35931  98.2307 104.7385 0016312  35.9165 324.3095 13.99651161871512
WORLDVIEW-2 (WV-2)      
1 35946U 09055A   26112.28709403  .00000088  00000+0  43657-4 0  9995
2 35946  98.4695 186.5249 0004948  40.7769 319.3788 14.37927065867614
SMOS                    
1 36036U 09059A   26111.75848956  .00000141  00000+0  58868-4 0  9998
2 36036  98.4435 299.9173 0001183  92.6045 267.5279 14.39742546865330
YAOGAN-7                
1 36110U 09069A   26112.23545491  .00000356  00000+0  56512-4 0  9996
2 36110  98.0140 358.4292 0023693 217.2935 142.6632 14.77952770881369
TANDEM-X                
1 36605U 10030A   26111.47913856  .00000277  00000+0  16387-4 0  9992
2 36605  97.4460 119.9940 0001878  96.8223 263.3225 15.19149482878032
CARTOSAT-2B             
1 36795U 10035A   26112.30834066  .00000903  00000+0  13029-3 0  9990
2 36795  98.0000 163.1996 0011620  18.7856 341.3781 14.78660069851591
YAOGAN-10               
1 36834U 10038A   26112.31225178  .00001810  00000+0  21763-3 0  9998
2 36834  97.9023 136.1578 0001430  86.7301  41.2573 14.85174421848919
COSMO-SKYMED 4          
1 37216U 10060A   26112.68008082  .00000272  00000+0  40751-4 0  9991
2 37216  97.8887 297.0832 0001363  84.2956 275.8413 14.82157120836341
RESOURCESAT-2           
1 37387U 11015A   26112.27554574  .00000086  00000+0  59221-4 0  9993
2 37387  98.7672 180.0953 0012281  62.6295 297.6131 14.21598078778230
HAIYANG-2A              
1 37781U 11043A   26112.52344449 -.00000040  00000+0  37800-5 0  9999
2 37781  99.3419 116.3621 0006047 192.4869 167.6132 13.76109759739002
RASAT                   
1 37791U 11044D   26112.29696962  .00000206  00000+0  44224-4 0  9995
2 37791  98.0547 204.5550 0020962  13.5251  80.0927 14.68111330784989
SRMSAT                  
1 37841U 11058D   26112.15733221  .00000370  00000+0  57188-4 0  9996
2 37841  19.9731  38.6033 0011595 307.5892  83.1132 14.11561813749899
PLEIADES 1A             
1 38012U 11076F   26112.28961523  .00000187  00000+0  50094-4 0  9994
2 38012  98.1985 188.1381 0001095  76.8296  15.4318 14.58534527763843
ZIYUAN 1-02C (ZY 1-02C) 
1 38038U 11079A   26112.28378067  .00000275  00000+0  10485-3 0  9997
2 38038  98.4096 180.7534 0007644 111.5075 336.0805 14.38166675751172
ARIRANG-3 (KOMPSAT-3)   
1 38338U 12025B   26112.26078112  .00000326  00000+0  73968-4 0  9991
2 38338  98.1130  70.7029 0004135 298.2642  61.8142 14.62154668743177
EXACTVIEW-1 (ADS-1B)    
1 38709U 12039C   26112.27859147  .00000087  00000+0  57167-4 0  9991
2 38709  98.9697 228.4273 0010339 337.8407  22.2323 14.24967186714748
SPOT 6                  
1 38755U 12047A   26112.28705013  .00000139  00000+0  39727-4 0  9994
2 38755  98.2143 180.2412 0001263  84.3565 275.7778 14.58519515724907
PLEIADES 1B             
1 39019U 12068A   26112.30647572  .00000103  00000+0  31922-4 0  9999
2 39019  98.1956 188.1226 0001088  84.7829 275.3494 14.58560282712707
GOKTURK 2               
1 39030U 12073A   26112.26959385  .00000468  00000+0  75682-4 0  9996
2 39030  97.6854 312.4941 0001791 104.0181 256.1228 14.75487149716261
LANDSAT 8               
1 39084U 13008A   26112.26530670  .00000220  00000+0  58887-4 0  9990
2 39084  98.1856 183.2594 0001167  91.0429 269.0903 14.57102773689756
SARAL                   
1 39086U 13009A   26112.24592392  .00000055  00000+0  36237-4 0  9991
2 39086  98.5565 299.5192 0003014  90.5567 269.5963 14.32841684687599
GAOFEN-1                
1 39150U 13018A   26112.29041981  .00000372  00000+0  60437-4 0  9992
2 39150  97.9111 185.4870 0018652  86.4227 273.9116 14.76548220699992
VNREDSAT 1              
1 39160U 13021B   26112.28230664  .00000474  00000+0  97139-4 0  9996
2 39160  97.9123 167.8301 0001255  88.5792 271.5556 14.64947468692102
ARIRANG-5 (KOMPSAT-5)   
1 39227U 13042A   26112.29910046  .00001805  00000+0  13329-3 0  9990
2 39227  97.6218 299.7813 0002977   5.2343 354.8913 15.04495093695451
SKYSAT-A                
1 39418U 13066C   26112.10091894  .00002533  00000+0  14772-3 0  9991
2 39418  97.3867 163.2834 0022637 145.0914 215.1807 15.12641056680007
DUBAISAT-2              
1 39419U 13066D   26112.27268348  .00002969  00000+0  18765-3 0  9999
2 39419  97.4561 103.9066 0009903 218.6007 141.4515 15.09761843677959
GPM-CORE                
1 39574U 14009C   26112.21616643  .00004862  00000+0  10917-3 0  9993
2 39574  64.9708 135.6834 0012326 259.6439 100.3313 15.44603636689165
SENTINEL-1A             
1 39634U 14016A   26112.27609470  .00000351  00000+0  84105-4 0  9994
2 39634  98.1803 120.6214 0001428  82.9119 277.2243 14.59199155641868
